ONEWEB-0176             
1 48210U 21031A   26197.17986770 -.00000064  00000+0 -20680-3 0  9992
2 48210  87.8970 283.9228 0002143 100.8453 259.2918 13.14502516252127
ONEWEB-0184             
1 48211U 21031B   26197.22903145  .00000284  00000+0  73173-3 0  9991
2 48211  87.8975 283.9155 0002647 113.9667 246.1740 13.14502709252103
ONEWEB-0179             
1 48212U 21031C   26197.22586847  .00000213  00000+0  62478-4 0  9997
2 48212  87.8992 279.9849 0221836 162.0874 198.8301 14.25549552253181
ONEWEB-0180             
1 48213U 21031D   26197.23220497  .00000287  00000+0  73829-3 0  9997
2 48213  87.8978 283.9118 0002475  98.5843 261.5567 13.14503219252037
ONEWEB-0218             
1 48214U 21031E   26197.17827908 -.00000035  00000+0 -12908-3 0  9995
2 48214  87.8980 283.9213 0002845 109.0488 251.0950 13.14503620252183
ONEWEB-0209             
1 48215U 21031F   26197.24330577  .00000169  00000+0  42261-3 0  9996
2 48215  87.8970 283.9229 0002235  95.8065 264.3319 13.14503616252198
ONEWEB-0198             
1 48216U 21031G   26197.22758549  .00000273  00000+0  70234-3 0  9995
2 48216  87.8960 283.9233 0002476  99.2810 260.8600 13.14502779252302
ONEWEB-0189             
1 48217U 21031H   26197.16401497  .00000209  00000+0  52818-3 0  9993
2 48217  87.8971 283.9253 0002385  99.9734 260.1665 13.14502387252037
ONEWEB-0196             
1 48218U 21031J   26197.21793071  .00000117  00000+0  28131-3 0  9991
2 48218  87.8966 283.9230 0002193  98.0914 262.0465 13.14502847252045
ONEWEB-0183             
1 48219U 21031K   26197.19255256 -.00000139  00000+0 -41024-3 0  9999
2 48219  87.8966 283.9256 0001971  94.1144 266.0211 13.14502591252138
ONEWEB-0185             
1 48220U 21031L   26197.21870454  .00000191  00000+0  48184-3 0  9997
2 48220  87.8975 283.9161 0002203  88.7207 271.4175 13.14504155252062
ONEWEB-0187             
1 48221U 21031M   26197.19875376 -.00000160  00000+0 -46566-3 0  9993
2 48221  87.8967 283.9335 0002192  95.8845 264.2535 13.14502988252074
ONEWEB-0192             
1 48222U 21031N   26197.24488740  .00000161  00000+0  39903-3 0  9991
2 48222  87.8968 283.9145 0002131 100.2603 259.8767 13.14503391251997
ONEWEB-0219             
1 48223U 21031P   26197.22425900  .00000208  00000+0  52561-3 0  9996
2 48223  87.8975 283.9122 0002209  93.5407 266.5975 13.14503481252192
ONEWEB-0202             
1 48224U 21031Q   26197.20524676 -.00000072  00000+0 -22889-3 0  9996
2 48224  87.8970 283.9280 0002671 106.4348 253.7075 13.14502718252173
ONEWEB-0204             
1 48225U 21031R   26197.16321366  .00000441  00000+0  11547-2 0  9999
2 48225  87.8971 283.9308 0001784  88.4115 271.7219 13.14502275252067
