{"fetched_at":"2026-07-16T17:46:05.603Z","source":"https://celestrak.org/NORAD/elements/gp.php?GROUP=oneweb&FORMAT=JSON","constellation":"oneweb","records":[{"OBJECT_NAME":"ONEWEB-0176","OBJECT_ID":"2021-031A","EPOCH":"2026-07-16T04:19:00.569280","CLASSIFICATION_TYPE":"U","MEAN_MOTION":13.14502516,"ECCENTRICITY":0.00021432,"INCLINATION":87.897,"RA_OF_ASC_NODE":283.9228,"ARG_OF_PERICENTER":100.8453,"MEAN_ANOMALY":259.2918,"EPHEMERIS_TYPE":0,"NORAD_CAT_ID":48210,"ELEMENT_SET_NO":999,"REV_AT_EPOCH":25212,"BSTAR":-0.00020680288,"MEAN_MOTION_DOT":-6.4e-7,"MEAN_MOTION_DDOT":0},{"OBJECT_NAME":"ONEWEB-0184","OBJECT_ID":"2021-031B","EPOCH":"2026-07-16T05:29:48.317280","CLASSIFICATION_TYPE":"U","MEAN_MOTION":13.14502709,"ECCENTRICITY":0.00026471,"INCLINATION":87.8975,"RA_OF_ASC_NODE":283.9155,"ARG_OF_PERICENTER":113.9667,"MEAN_ANOMALY":246.174,"EPHEMERIS_TYPE":0,"NORAD_CAT_ID":48211,"ELEMENT_SET_NO":999,"REV_AT_EPOCH":25210,"BSTAR":0.00073172741,"MEAN_MOTION_DOT":0.00000284,"MEAN_MOTION_DDOT":0},{"OBJECT_NAME":"ONEWEB-0179","OBJECT_ID":"2021-031C","EPOCH":"2026-07-16T05:25:15.035808","CLASSIFICATION_TYPE":"U","MEAN_MOTION":14.25549552,"ECCENTRICITY":0.0221836,"INCLINATION":87.8992,"RA_OF_ASC_NODE":279.9849,"ARG_OF_PERICENTER":162.0874,"MEAN_ANOMALY":198.8301,"EPHEMERIS_TYPE":0,"NORAD_CAT_ID":48212,"ELEMENT_SET_NO":999,"REV_AT_EPOCH":25318,"BSTAR":0.000062477539,"MEAN_MOTION_DOT":0.00000213,"MEAN_MOTION_DDOT":0},{"OBJECT_NAME":"ONEWEB-0180","OBJECT_ID":"2021-031D","EPOCH":"2026-07-16T05:34:22.509408","CLASSIFICATION_TYPE":"U","MEAN_MOTION":13.14503219,"ECCENTRICITY":0.00024755,"INCLINATION":87.8978,"RA_OF_ASC_NODE":283.9118,"ARG_OF_PERICENTER":98.5843,"MEAN_ANOMALY":261.5567,"EPHEMERIS_TYPE":0,"NORAD_CAT_ID":48213,"ELEMENT_SET_NO":999,"REV_AT_EPOCH":25203,"BSTAR":0.00073829428,"MEAN_MOTION_DOT":0.00000287,"MEAN_MOTION_DDOT":0},{"OBJECT_NAME":"ONEWEB-0218","OBJECT_ID":"2021-031E","EPOCH":"2026-07-16T04:16:43.312512","CLASSIFICATION_TYPE":"U","MEAN_MOTION":13.1450362,"ECCENTRICITY":0.00028458,"INCLINATION":87.898,"RA_OF_ASC_NODE":283.9213,"ARG_OF_PERICENTER":109.0488,"MEAN_ANOMALY":251.095,"EPHEMERIS_TYPE":0,"NORAD_CAT_ID":48214,"ELEMENT_SET_NO":999,"REV_AT_EPOCH":25218,"BSTAR":-0.00012907751,"MEAN_MOTION_DOT":-3.5e-7,"MEAN_MOTION_DDOT":0},{"OBJECT_NAME":"ONEWEB-0209","OBJECT_ID":"2021-031F","EPOCH":"2026-07-16T05:50:21.618528","CLASSIFICATION_TYPE":"U","MEAN_MOTION":13.14503616,"ECCENTRICITY":0.00022357,"INCLINATION":87.897,"RA_OF_ASC_NODE":283.9229,"ARG_OF_PERICENTER":95.8065,"MEAN_ANOMALY":264.3319,"EPHEMERIS_TYPE":0,"NORAD_CAT_ID":48215,"ELEMENT_SET_NO":999,"REV_AT_EPOCH":25219,"BSTAR":0.00042261059,"MEAN_MOTION_DOT":0.00000169,"MEAN_MOTION_DDOT":0},{"OBJECT_NAME":"ONEWEB-0198","OBJECT_ID":"2021-031G","EPOCH":"2026-07-16T05:27:43.386336","CLASSIFICATION_TYPE":"U","MEAN_MOTION":13.14502779,"ECCENTRICITY":0.00024763,"INCLINATION":87.896,"RA_OF_ASC_NODE":283.9233,"ARG_OF_PERICENTER":99.281,"MEAN_ANOMALY":260.86,"EPHEMERIS_TYPE":0,"NORAD_CAT_ID":48216,"ELEMENT_SET_NO":999,"REV_AT_EPOCH":25230,"BSTAR":0.00070234261,"MEAN_MOTION_DOT":0.00000273,"MEAN_MOTION_DDOT":0},{"OBJECT_NAME":"ONEWEB-0189","OBJECT_ID":"2021-031H","EPOCH":"2026-07-16T03:56:10.893408","CLASSIFICATION_TYPE":"U","MEAN_MOTION":13.14502387,"ECCENTRICITY":0.00023852,"INCLINATION":87.8971,"RA_OF_ASC_NODE":283.9253,"ARG_OF_PERICENTER":99.9734,"MEAN_ANOMALY":260.1665,"EPHEMERIS_TYPE":0,"NORAD_CAT_ID":48217,"ELEMENT_SET_NO":999,"REV_AT_EPOCH":25203,"BSTAR":0.0005281776,"MEAN_MOTION_DOT":0.00000209,"MEAN_MOTION_DDOT":0},{"OBJECT_NAME":"ONEWEB-0196","OBJECT_ID":"2021-031J","EPOCH":"2026-07-16T05:13:49.213344","CLASSIFICATION_TYPE":"U","MEAN_MOTION":13.14502847,"ECCENTRICITY":0.00021939,"INCLINATION":87.8966,"RA_OF_ASC_NODE":283.923,"ARG_OF_PERICENTER":98.0914,"MEAN_ANOMALY":262.0465,"EPHEMERIS_TYPE":0,"NORAD_CAT_ID":48218,"ELEMENT_SET_NO":999,"REV_AT_EPOCH":25204,"BSTAR":0.00028131272,"MEAN_MOTION_DOT":0.00000117,"MEAN_MOTION_DDOT":0},{"OBJECT_NAME":"ONEWEB-0183","OBJECT_ID":"2021-031K","EPOCH":"2026-07-16T04:37:16.541184","CLASSIFICATION_TYPE":"U","MEAN_MOTION":13.14502591,"ECCENTRICITY":0.00019718,"INCLINATION":87.8966,"RA_OF_ASC_NODE":283.9256,"ARG_OF_PERICENTER":94.1144,"MEAN_ANOMALY":266.0211,"EPHEMERIS_TYPE":0,"NORAD_CAT_ID":48219,"ELEMENT_SET_NO":999,"REV_AT_EPOCH":25213,"BSTAR":-0.00041024201,"MEAN_MOTION_DOT":-0.00000139,"MEAN_MOTION_DDOT":0},{"OBJECT_NAME":"ONEWEB-0185","OBJECT_ID":"2021-031L","EPOCH":"2026-07-16T05:14:56.072256","CLASSIFICATION_TYPE":"U","MEAN_MOTION":13.14504155,"ECCENTRICITY":0.00022038,"INCLINATION":87.8975,"RA_OF_ASC_NODE":283.9161,"ARG_OF_PERICENTER":88.7207,"MEAN_ANOMALY":271.4175,"EPHEMERIS_TYPE":0,"NORAD_CAT_ID":48220,"ELEMENT_SET_NO":999,"REV_AT_EPOCH":25206,"BSTAR":0.00048184297,"MEAN_MOTION_DOT":0.00000191,"MEAN_MOTION_DDOT":0},{"OBJECT_NAME":"ONEWEB-0187","OBJECT_ID":"2021-031M","EPOCH":"2026-07-16T04:46:12.324864","CLASSIFICATION_TYPE":"U","MEAN_MOTION":13.14502988,"ECCENTRICITY":0.00021921,"INCLINATION":87.8967,"RA_OF_ASC_NODE":283.9335,"ARG_OF_PERICENTER":95.8845,"MEAN_ANOMALY":264.2535,"EPHEMERIS_TYPE":0,"NORAD_CAT_ID":48221,"ELEMENT_SET_NO":999,"REV_AT_EPOCH":25207,"BSTAR":-0.00046565706,"MEAN_MOTION_DOT":-0.0000016,"MEAN_MOTION_DDOT":0},{"OBJECT_NAME":"ONEWEB-0192","OBJECT_ID":"2021-031N","EPOCH":"2026-07-16T05:52:38.271360","CLASSIFICATION_TYPE":"U","MEAN_MOTION":13.14503391,"ECCENTRICITY":0.00021318,"INCLINATION":87.8968,"RA_OF_ASC_NODE":283.9145,"ARG_OF_PERICENTER":100.2603,"MEAN_ANOMALY":259.8767,"EPHEMERIS_TYPE":0,"NORAD_CAT_ID":48222,"ELEMENT_SET_NO":999,"REV_AT_EPOCH":25199,"BSTAR":0.00039903034,"MEAN_MOTION_DOT":0.00000161,"MEAN_MOTION_DDOT":0},{"OBJECT_NAME":"ONEWEB-0219","OBJECT_ID":"2021-031P","EPOCH":"2026-07-16T05:22:55.977600","CLASSIFICATION_TYPE":"U","MEAN_MOTION":13.14503481,"ECCENTRICITY":0.00022093,"INCLINATION":87.8975,"RA_OF_ASC_NODE":283.9122,"ARG_OF_PERICENTER":93.5407,"MEAN_ANOMALY":266.5975,"EPHEMERIS_TYPE":0,"NORAD_CAT_ID":48223,"ELEMENT_SET_NO":999,"REV_AT_EPOCH":25219,"BSTAR":0.00052561277,"MEAN_MOTION_DOT":0.00000208,"MEAN_MOTION_DDOT":0},{"OBJECT_NAME":"ONEWEB-0202","OBJECT_ID":"2021-031Q","EPOCH":"2026-07-16T04:55:33.320064","CLASSIFICATION_TYPE":"U","MEAN_MOTION":13.14502718,"ECCENTRICITY":0.00026712,"INCLINATION":87.897,"RA_OF_ASC_NODE":283.928,"ARG_OF_PERICENTER":106.4348,"MEAN_ANOMALY":253.7075,"EPHEMERIS_TYPE":0,"NORAD_CAT_ID":48224,"ELEMENT_SET_NO":999,"REV_AT_EPOCH":25217,"BSTAR":-0.00022889133,"MEAN_MOTION_DOT":-7.2e-7,"MEAN_MOTION_DDOT":0},{"OBJECT_NAME":"ONEWEB-0204","OBJECT_ID":"2021-031R","EPOCH":"2026-07-16T03:55:01.660224","CLASSIFICATION_TYPE":"U","MEAN_MOTION":13.14502275,"ECCENTRICITY":0.00017849,"INCLINATION":87.8971,"RA_OF_ASC_NODE":283.9308,"ARG_OF_PERICENTER":88.4115,"MEAN_ANOMALY":271.7219,"EPHEMERIS_TYPE":0,"NORAD_CAT_ID":48225,"ELEMENT_SET_NO":999,"REV_AT_EPOCH":25206,"BSTAR":0.0011546643,"MEAN_MOTION_DOT":0.00000441,"MEAN_MOTION_DDOT":0}]}
